[
    {
        "Altitude(m)": 611967.149060268,
        "Argument of Periapsis(deg)": 0.0,
        "Eccentricity": 0.0,
        "Inclination(deg)": 60.0,
        "Latitude(deg)": 59.140071026933356,
        "Longitude(deg)": -118.9078293906285,
        "Mean Anomaly(deg)": 98.18179999999998,
        "RAAN(deg)": 235.0,
        "Satellite Name": "Test1 1040",
        "Satellite Number": 1040,
        "Semi-Major Axis(m)": 6980739.136638005,
        "Time(s)": 0
    },
    {
        "Altitude(m)": 611934.3484043401,
        "Argument of Periapsis(deg)": 0.00010418945913296404,
        "Eccentricity": 0.0,
        "Inclination(deg)": 60.0,
        "Latitude(deg)": 58.986431899206984,
        "Longitude(deg)": -117.78458730819719,
        "Mean Anomaly(deg)": 98.80190614546179,
        "RAAN(deg)": 234.99957995086027,
        "Satellite Name": "Test1 1040",
        "Satellite Number": 1040,
        "Semi-Major Axis(m)": 6980739.136638005,
        "Time(s)": 10
    }
]